{
    "CCSDS_OMM_VERS": "3.0",
    "COMMENT": "GENERATED VIA SPACE-TRACK.ORG API",
    "CREATION_DATE": "2025-11-23T21:08:43",
    "ORIGINATOR": "18 SPCS",
    "OBJECT_NAME": "GALILEO 24 (2C0)",
    "OBJECT_ID": "2018-060D",
    "CENTER_NAME": "EARTH",
    "REF_FRAME": "TEME",
    "TIME_SYSTEM": "UTC",
    "MEAN_ELEMENT_THEORY": "SGP4",
    "EPOCH": "2025-11-22T15:52:53.363136",
    "MEAN_MOTION": "1.70476106",
    "ECCENTRICITY": "0.00058324",
    "INCLINATION": "57.2351",
    "RA_OF_ASC_NODE": "347.3658",
    "ARG_OF_PERICENTER": "278.1078",
    "MEAN_ANOMALY": "81.8726",
    "EPHEMERIS_TYPE": "0",
    "CLASSIFICATION_TYPE": "U",
    "NORAD_CAT_ID": "43567",
    "ELEMENT_SET_NO": "999",
    "REV_AT_EPOCH": "4565",
    "BSTAR": "0.00000000000000",
    "MEAN_MOTION_DOT": "-0.00000067",
    "MEAN_MOTION_DDOT": "0.0000000000000",
    "SEMIMAJOR_AXIS": "29600.076",
    "PERIOD": "844.693",
    "APOAPSIS": "23239.205",
    "PERIAPSIS": "23204.677",
    "OBJECT_TYPE": "PAYLOAD",
    "RCS_SIZE": "LARGE",
    "COUNTRY_CODE": "ESA",
    "LAUNCH_DATE": "2018-07-25",
    "SITE": "FRGUI",
    "DECAY_DATE": null,
    "FILE": "4896238",
    "GP_ID": "303333685",
    "TLE_LINE0": "0 GALILEO 24 (2C0)",
    "TLE_LINE1": "1 43567U 18060D   25326.66172874 -.00000067  00000-0  00000-0 0  9993",
    "TLE_LINE2": "2 43567  57.2351 347.3658 0005832 278.1078  81.8726  1.70476106 45651"
}